{"fetched_at":"2026-07-16T06:43:00.092Z","source":"https://celestrak.org/NORAD/elements/gp.php?NAME=HULIANWANG&FORMAT=JSON","constellation":"guowang","records":[{"OBJECT_NAME":"HULIANWANG DIGUI-92","OBJECT_ID":"2025-231F","EPOCH":"2026-07-15T22:12:35.461152","CLASSIFICATION_TYPE":"U","MEAN_MOTION":13.29329023,"ECCENTRICITY":0.00005332,"INCLINATION":50.0059,"RA_OF_ASC_NODE":72.5839,"ARG_OF_PERICENTER":343.3431,"MEAN_ANOMALY":16.7423,"EPHEMERIS_TYPE":0,"NORAD_CAT_ID":66000,"ELEMENT_SET_NO":999,"REV_AT_EPOCH":3671,"BSTAR":0.000067704858,"MEAN_MOTION_DOT":-9.3e-7,"MEAN_MOTION_DDOT":0},{"OBJECT_NAME":"HULIANWANG DIGUI-93","OBJECT_ID":"2025-231G","EPOCH":"2026-07-15T21:48:29.156256","CLASSIFICATION_TYPE":"U","MEAN_MOTION":13.29328066,"ECCENTRICITY":0.00005203,"INCLINATION":50.0025,"RA_OF_ASC_NODE":72.4314,"ARG_OF_PERICENTER":338.3945,"MEAN_ANOMALY":21.6905,"EPHEMERIS_TYPE":0,"NORAD_CAT_ID":66001,"ELEMENT_SET_NO":999,"REV_AT_EPOCH":3671,"BSTAR":0.000054867242,"MEAN_MOTION_DOT":-9.9e-7,"MEAN_MOTION_DDOT":0},{"OBJECT_NAME":"HULIANWANG DIGUI-94","OBJECT_ID":"2025-231H","EPOCH":"2026-07-15T22:00:44.358048","CLASSIFICATION_TYPE":"U","MEAN_MOTION":13.29326025,"ECCENTRICITY":0.0000557,"INCLINATION":50.0067,"RA_OF_ASC_NODE":72.5585,"ARG_OF_PERICENTER":341.1324,"MEAN_ANOMALY":18.9528,"EPHEMERIS_TYPE":0,"NORAD_CAT_ID":66002,"ELEMENT_SET_NO":999,"REV_AT_EPOCH":3671,"BSTAR":0.000052025032,"MEAN_MOTION_DOT":-0.000001,"MEAN_MOTION_DDOT":0},{"OBJECT_NAME":"HULIANWANG DIGUI-95","OBJECT_ID":"2025-231J","EPOCH":"2026-07-15T21:36:31.269024","CLASSIFICATION_TYPE":"U","MEAN_MOTION":13.29332498,"ECCENTRICITY":0.00005263,"INCLINATION":50.0041,"RA_OF_ASC_NODE":72.414,"ARG_OF_PERICENTER":345.3852,"MEAN_ANOMALY":14.7005,"EPHEMERIS_TYPE":0,"NORAD_CAT_ID":66003,"ELEMENT_SET_NO":999,"REV_AT_EPOCH":3671,"BSTAR":0.000051295855,"MEAN_MOTION_DOT":-0.000001,"MEAN_MOTION_DDOT":0},{"OBJECT_NAME":"HULIANWANG DIGUI-96","OBJECT_ID":"2025-258A","EPOCH":"2026-07-15T22:10:39.487296","CLASSIFICATION_TYPE":"U","MEAN_MOTION":13.29327301,"ECCENTRICITY":0.00008838,"INCLINATION":50.0021,"RA_OF_ASC_NODE":192.5723,"ARG_OF_PERICENTER":250.9793,"MEAN_ANOMALY":109.0983,"EPHEMERIS_TYPE":0,"NORAD_CAT_ID":66412,"ELEMENT_SET_NO":999,"REV_AT_EPOCH":3355,"BSTAR":0.000007610001,"MEAN_MOTION_DOT":-0.0000012,"MEAN_MOTION_DDOT":0},{"OBJECT_NAME":"HULIANWANG DIGUI-97","OBJECT_ID":"2025-258B","EPOCH":"2026-07-15T10:20:54.139488","CLASSIFICATION_TYPE":"U","MEAN_MOTION":13.29326712,"ECCENTRICITY":0.000102,"INCLINATION":49.9984,"RA_OF_ASC_NODE":194.5648,"ARG_OF_PERICENTER":250.4799,"MEAN_ANOMALY":109.5964,"EPHEMERIS_TYPE":0,"NORAD_CAT_ID":66413,"ELEMENT_SET_NO":999,"REV_AT_EPOCH":3348,"BSTAR":0.000021924796,"MEAN_MOTION_DOT":-0.00000114,"MEAN_MOTION_DDOT":0},{"OBJECT_NAME":"HULIANWANG DIGUI-98","OBJECT_ID":"2025-258C","EPOCH":"2026-07-15T08:20:49.457760","CLASSIFICATION_TYPE":"U","MEAN_MOTION":13.29323265,"ECCENTRICITY":0.00011141,"INCLINATION":50.0021,"RA_OF_ASC_NODE":194.8697,"ARG_OF_PERICENTER":245.5233,"MEAN_ANOMALY":114.5523,"EPHEMERIS_TYPE":0,"NORAD_CAT_ID":66414,"ELEMENT_SET_NO":999,"REV_AT_EPOCH":3347,"BSTAR":0.000037120127,"MEAN_MOTION_DOT":-0.00000107,"MEAN_MOTION_DDOT":0},{"OBJECT_NAME":"HULIANWANG DIGUI-99","OBJECT_ID":"2025-258D","EPOCH":"2026-07-15T11:09:07.315200","CLASSIFICATION_TYPE":"U","MEAN_MOTION":13.29326582,"ECCENTRICITY":0.00009862,"INCLINATION":50.0023,"RA_OF_ASC_NODE":194.1493,"ARG_OF_PERICENTER":252.8345,"MEAN_ANOMALY":107.2419,"EPHEMERIS_TYPE":0,"NORAD_CAT_ID":66415,"ELEMENT_SET_NO":999,"REV_AT_EPOCH":3348,"BSTAR":0.000021998296,"MEAN_MOTION_DOT":-0.00000114,"MEAN_MOTION_DDOT":0},{"OBJECT_NAME":"HULIANWANG DIGUI-100","OBJECT_ID":"2025-258E","EPOCH":"2026-07-15T22:34:51.055680","CLASSIFICATION_TYPE":"U","MEAN_MOTION":13.29323358,"ECCENTRICITY":0.00010032,"INCLINATION":50.0025,"RA_OF_ASC_NODE":192.6739,"ARG_OF_PERICENTER":258.5023,"MEAN_ANOMALY":101.5737,"EPHEMERIS_TYPE":0,"NORAD_CAT_ID":66416,"ELEMENT_SET_NO":999,"REV_AT_EPOCH":3356,"BSTAR":0.000020004053,"MEAN_MOTION_DOT":-0.00000115,"MEAN_MOTION_DDOT":0},{"OBJECT_NAME":"HULIANWANG DIGUI-101","OBJECT_ID":"2025-258F","EPOCH":"2026-07-15T09:44:44.967264","CLASSIFICATION_TYPE":"U","MEAN_MOTION":13.29327152,"ECCENTRICITY":0.00008248,"INCLINATION":49.9974,"RA_OF_ASC_NODE":194.4092,"ARG_OF_PERICENTER":253.3912,"MEAN_ANOMALY":106.687,"EPHEMERIS_TYPE":0,"NORAD_CAT_ID":66417,"ELEMENT_SET_NO":999,"REV_AT_EPOCH":3349,"BSTAR":0.000010714061,"MEAN_MOTION_DOT":-0.00000119,"MEAN_MOTION_DDOT":0},{"OBJECT_NAME":"HULIANWANG DIGUI-102","OBJECT_ID":"2025-258G","EPOCH":"2026-07-15T16:21:53.632800","CLASSIFICATION_TYPE":"U","MEAN_MOTION":13.29323207,"ECCENTRICITY":0.00008709,"INCLINATION":49.999,"RA_OF_ASC_NODE":193.2254,"ARG_OF_PERICENTER":251.6722,"MEAN_ANOMALY":108.4055,"EPHEMERIS_TYPE":0,"NORAD_CAT_ID":66418,"ELEMENT_SET_NO":999,"REV_AT_EPOCH":3352,"BSTAR":0.000016259982,"MEAN_MOTION_DOT":-0.00000116,"MEAN_MOTION_DDOT":0},{"OBJECT_NAME":"HULIANWANG DIGUI-103","OBJECT_ID":"2025-258H","EPOCH":"2026-07-15T16:09:40.832064","CLASSIFICATION_TYPE":"U","MEAN_MOTION":13.29326246,"ECCENTRICITY":0.00009579,"INCLINATION":49.9983,"RA_OF_ASC_NODE":193.1667,"ARG_OF_PERICENTER":263.4477,"MEAN_ANOMALY":96.6286,"EPHEMERIS_TYPE":0,"NORAD_CAT_ID":66419,"ELEMENT_SET_NO":999,"REV_AT_EPOCH":3352,"BSTAR":0.000013268712,"MEAN_MOTION_DOT":-0.00000118,"MEAN_MOTION_DDOT":0},{"OBJECT_NAME":"HULIANWANG DIGUI-104","OBJECT_ID":"2025-258J","EPOCH":"2026-07-15T15:57:42.728832","CLASSIFICATION_TYPE":"U","MEAN_MOTION":13.29326319,"ECCENTRICITY":0.00009433,"INCLINATION":50,"RA_OF_ASC_NODE":193.163,"ARG_OF_PERICENTER":250.1575,"MEAN_ANOMALY":109.9196,"EPHEMERIS_TYPE":0,"NORAD_CAT_ID":66420,"ELEMENT_SET_NO":999,"REV_AT_EPOCH":3351,"BSTAR":0.000013762118,"MEAN_MOTION_DOT":-0.00000118,"MEAN_MOTION_DDOT":0},{"OBJECT_NAME":"HULIANWANG DIGUI-105","OBJECT_ID":"2025-285A","EPOCH":"2026-07-15T21:28:21.743040","CLASSIFICATION_TYPE":"U","MEAN_MOTION":13.29322637,"ECCENTRICITY":0.00009614,"INCLINATION":50.0058,"RA_OF_ASC_NODE":43.263,"ARG_OF_PERICENTER":36.9613,"MEAN_ANOMALY":323.1326,"EPHEMERIS_TYPE":0,"NORAD_CAT_ID":66915,"ELEMENT_SET_NO":999,"REV_AT_EPOCH":2987,"BSTAR":0.000016369386,"MEAN_MOTION_DOT":-0.00000116,"MEAN_MOTION_DDOT":0},{"OBJECT_NAME":"HULIANWANG DIGUI-106","OBJECT_ID":"2025-285B","EPOCH":"2026-07-15T23:04:31.624032","CLASSIFICATION_TYPE":"U","MEAN_MOTION":13.29323079,"ECCENTRICITY":0.00009882,"INCLINATION":50.007,"RA_OF_ASC_NODE":42.9702,"ARG_OF_PERICENTER":35.4727,"MEAN_ANOMALY":324.6211,"EPHEMERIS_TYPE":0,"NORAD_CAT_ID":66916,"ELEMENT_SET_NO":999,"REV_AT_EPOCH":2988,"BSTAR":0.000043798891,"MEAN_MOTION_DOT":-0.00000104,"MEAN_MOTION_DDOT":0},{"OBJECT_NAME":"HULIANWANG DIGUI-107","OBJECT_ID":"2025-285C","EPOCH":"2026-07-15T22:52:17.910912","CLASSIFICATION_TYPE":"U","MEAN_MOTION":13.29325968,"ECCENTRICITY":0.00009743,"INCLINATION":50.0035,"RA_OF_ASC_NODE":42.864,"ARG_OF_PERICENTER":40.1176,"MEAN_ANOMALY":319.9768,"EPHEMERIS_TYPE":0,"NORAD_CAT_ID":66917,"ELEMENT_SET_NO":999,"REV_AT_EPOCH":2988,"BSTAR":0.000037546937,"MEAN_MOTION_DOT":-0.00000107,"MEAN_MOTION_DDOT":0}]}
