HULIANWANG DIGUI-92     
1 66000U 25231F   26196.92541043 -.00000093  00000+0  67705-4 0  9998
2 66000  50.0059  72.5839 0000533 343.3431  16.7423 13.29329023 36713
HULIANWANG DIGUI-93     
1 66001U 25231G   26196.90867079 -.00000099  00000+0  54867-4 0  9998
2 66001  50.0025  72.4314 0000520 338.3945  21.6905 13.29328066 36710
HULIANWANG DIGUI-94     
1 66002U 25231H   26196.91718007 -.00000100  00000+0  52025-4 0  9993
2 66002  50.0067  72.5585 0000557 341.1324  18.9528 13.29326025 36714
HULIANWANG DIGUI-95     
1 66003U 25231J   26196.90036191 -.00000100  00000+0  51296-4 0  9999
2 66003  50.0041  72.4140 0000526 345.3852  14.7005 13.29332498 36716
HULIANWANG DIGUI-96     
1 66412U 25258A   26196.92406814 -.00000120  00000+0  76100-5 0  9991
2 66412  50.0021 192.5723 0000883 250.9793 109.0983 13.29327301 33559
HULIANWANG DIGUI-97     
1 66413U 25258B   26196.43118217 -.00000114  00000+0  21925-4 0  9992
2 66413  49.9984 194.5648 0001020 250.4799 109.5964 13.29326712 33489
HULIANWANG DIGUI-98     
1 66414U 25258C   26196.34779465 -.00000107  00000+0  37120-4 0  9997
2 66414  50.0021 194.8697 0001114 245.5233 114.5523 13.29323265 33470
HULIANWANG DIGUI-99     
1 66415U 25258D   26196.46466800 -.00000114  00000+0  21998-4 0  9991
2 66415  50.0023 194.1493 0000986 252.8345 107.2419 13.29326582 33480
HULIANWANG DIGUI-100    
1 66416U 25258E   26196.94086870 -.00000115  00000+0  20004-4 0  9998
2 66416  50.0025 192.6739 0001003 258.5023 101.5737 13.29323358 33563
HULIANWANG DIGUI-101    
1 66417U 25258F   26196.40607601 -.00000119  00000+0  10714-4 0  9992
2 66417  49.9974 194.4092 0000824 253.3912 106.6870 13.29327152 33498
HULIANWANG DIGUI-102    
1 66418U 25258G   26196.68187075 -.00000116  00000+0  16260-4 0  9990
2 66418  49.9990 193.2254 0000870 251.6722 108.4055 13.29323207 33521
HULIANWANG DIGUI-103    
1 66419U 25258H   26196.67338926 -.00000118  00000+0  13269-4 0  9991
2 66419  49.9983 193.1667 0000957 263.4477  96.6286 13.29326246 33525
HULIANWANG DIGUI-104    
1 66420U 25258J   26196.66507788 -.00000118  00000+0  13762-4 0  9994
2 66420  50.0000 193.1630 0000943 250.1575 109.9196 13.29326319 33515
HULIANWANG DIGUI-105    
1 66915U 25285A   26196.89469610 -.00000116  00000+0  16369-4 0  9993
2 66915  50.0058  43.2630 0000961  36.9613 323.1326 13.29322637 29873
HULIANWANG DIGUI-106    
1 66916U 25285B   26196.96147713 -.00000104  00000+0  43799-4 0  9993
2 66916  50.0070  42.9702 0000988  35.4727 324.6211 13.29323079 29884
HULIANWANG DIGUI-107    
1 66917U 25285C   26196.95298508 -.00000107  00000+0  37547-4 0  9999
2 66917  50.0035  42.8640 0000974  40.1176 319.9768 13.29325968 29885
